EUTELSAT 53A            
1 40277U 14064A   26162.84754300  .00000114  00000+0  00000+0 0  9997
2 40277   0.0151 302.5063 0000894 248.4151  67.3924  1.00271372 41519
GSAT-16                 
1 40332U 14078A   26162.70542977  .00000101  00000+0  00000+0 0  9990
2 40332   0.0750  91.6836 0007601 354.4128 122.9886  1.00272739 42058
DIRECTV 14              
1 40333U 14078B   26161.26641970 -.00000108  00000+0  00000+0 0  9992
2 40333   0.0092   5.4718 0000188 266.0574 343.7738  1.00270829 41973
YAMAL 401               
1 40345U 14082A   26162.35585656  .00000000  00000+0  00000+0 0  9999
2 40345   0.0165 302.1572 0000623 218.8270 316.7771  1.00269130 41862
ASTRA 2G                
1 40364U 14089A   26162.67319558  .00000166  00000+0  00000+0 0  9991
2 40364   0.0545  22.7963 0004735  39.0028 108.7549  1.00272171 41913
FENGYUN 2G              
1 40367U 14090A   26162.78549207 -.00000290  00000+0  00000+0 0  9993
2 40367   5.6239  72.8828 0003763 152.7025  56.9684  1.00274998 41949
MUOS-3                  
1 40374U 15002A   26162.33504872 -.00000114  00000+0  00000+0 0  9990
2 40374   4.5101  43.5014 0051677 178.3289 143.0345  1.00271867 41526
INMARSAT 5-F2           
1 40384U 15005A   26161.32908104 -.00000268  00000+0  00000+0 0  9998
2 40384   0.0182 351.4709 0000482 250.7950  79.8962  1.00271617 40924
ABS-3A                  
1 40424U 15010A   26161.69576145  .00000000  00000+0  00000+0 0  9998
2 40424   0.0322  54.3406 0002114 336.4101 115.7456  1.00272202 41315
EUTELSAT 115 WEST B     
1 40425U 15010B   26161.67367659 -.00000008  00000+0  00000+0 0  9994
2 40425   0.0216 160.6232 0000059 220.5162   5.5168  1.00273831 41328
EXPRESS-AM7             
1 40505U 15012A   26162.55978609  .00000167  00000+0  00000+0 0  9991
2 40505   0.0178 324.7552 0003087 128.2301  48.4735  1.00274095 40952
BEIDOU-3S IGSO-1S       
1 40549U 15019A   26162.85493035 -.00000180  00000+0  00000+0 0  9990
2 40549  49.2064 295.5276 0038800 190.7165 173.6268  1.00251574 41028
THOR 7                  
1 40613U 15022A   26162.69430027  .00000008  00000+0  00000+0 0  9998
2 40613   0.0408 130.0799 0002463 312.0007  67.2480  1.00271393 40765
TURKMENALEM52E/MONACOSAT
1 40617U 15023A   26162.56221277  .00000120  00000+0  00000+0 0  9999
2 40617   0.0184  52.2071 0002774  29.6428  72.4971  1.00273833 40798
DIRECTV 15              
1 40663U 15026A   26162.67410683 -.00000086  00000+0  00000+0 0  9998
2 40663   0.0180  10.3830 0000635 273.8943 115.5426  1.00269288 40403
SKY MEXICO-1            
1 40664U 15026B   26162.53631730 -.00000217  00000+0  00000+0 0  9998
2 40664   0.0185 327.3821 0002093 135.5940 271.1791  1.00270302 40392
METEOSAT-11 (MSG-4)     
1 40732U 15034A   26162.69638027  .00000079  00000+0  00000+0 0  9991
2 40732   3.1883  71.1420 0001744   7.6014  81.5005  1.00278631  7161
STAR ONE C4             
1 40733U 15034B   26162.53805065 -.00000248  00000+0  00000+0 0  9992
2 40733   0.0276  22.4067 0002130  47.1805 314.0060  1.00271663 39952
WGS F7 (USA 263)        
1 40746U 15036A   26162.80041419  .00000034  00000+0  00000+0 0  9995
2 40746   0.0021 356.3992 0000473 322.8377  44.0397  1.00270545 39811
INTELSAT 34 (IS-34)     
1 40874U 15039A   26162.32698867 -.00000268  00000+0  00000+0 0  9992
2 40874   0.0095 328.8375 0000320 355.2995 357.7670  1.00269705 39577
EUTELSAT 8 WEST B       
1 40875U 15039B   26162.69291359 -.00000049  00000+0  00000+0 0  9995
2 40875   0.0640   3.1182 0003901  74.2743  64.0898  1.00271607 39608
GSAT-6                  
1 40880U 15041A   26162.71080311 -.00000144  00000+0  00000+0 0  9997
2 40880   1.9059  82.6621 0003438 353.2094 162.5873  1.00271018 39548
INMARSAT 5-F3           
1 40882U 15042A   26161.66067652  .00000068  00000+0  00000+0 0  9990
2 40882   0.0181 358.7886 0000203 177.1745 140.5378  1.00269180 39508
MUOS-4                  
1 40887U 15044A   26162.70932977 -.00000080  00000+0  00000+0 0  9999
2 40887   4.3192  42.2038 0059209   4.8412 183.3932  1.00271312 39504
TJS-1                   
1 40892U 15046A   26162.79920999 -.00000139  00000+0  00000+0 0  9992
2 40892   0.3088  84.9533 0005558 356.9266 261.0386  1.00271564 39516
EXPRESS-AM8             
1 40895U 15048A   26162.69170025 -.00000095  00000+0  00000+0 0  9994
2 40895   0.0165 310.2486 0000041 262.3517 282.4502  1.00270973 39290
BEIDOU-3S IGSO-2S       
1 40938U 15053A   26162.78623770 -.00000147  00000+0  00000+0 0  9996
2 40938  49.2301 258.8486 0065579 191.9375 187.8432  1.00260926 39307
SKY MUSTER 1 (NBN1A)    
1 40940U 15054A   26161.51026902  .00000000  00000+0  00000+0 0  9991
2 40940   0.0228 338.0809 0001705 111.1974 133.5327  1.00268853 39198
ARSAT 2                 
1 40941U 15054B   26162.53588397 -.00000208  00000+0  00000+0 0  9997
2 40941   0.0200  33.3440 0002072  33.1238 305.3266  1.00272255 39247
MORELOS 3               
1 40946U 15056A   26162.67211351 -.00000029  00000+0  00000+0 0  9993
2 40946   3.1825  14.9332 0001403 359.1423  14.7880  1.00272261 39237
APSTAR-9                
1 40982U 15059A   26162.65131340 -.00000250  00000+0  00000+0 0  9999
2 40982   0.0206  20.1729 0002436 164.4620  91.8178  1.00268583 39067
TURKSAT 4B              
1 40984U 15060A   26162.63305111  .00000132  00000+0  00000+0 0  9998
2 40984   0.0216  58.2067 0002280   7.8155 111.8403  1.00269550 39044
